OBJECT_NAME,OBJECT_ID,EPOCH,MEAN_MOTION,ECCENTRICITY,INCLINATION,RA_OF_ASC_NODE,ARG_OF_PERICENTER,MEAN_ANOMALY,EPHEMERIS_TYPE,CLASSIFICATION_TYPE,NORAD_CAT_ID,ELEMENT_SET_NO,REV_AT_EPOCH,BSTAR,MEAN_MOTION_DOT,MEAN_MOTION_DDOT
DUBAISAT-1,2009-041B,2026-06-05T19:53:36.811392,14.75106201,.0011719,98.0039,290.2122,105.9324,254.3177,0,U,35682,999,90342,.15478E-3,.994E-5,0
WORLDVIEW-2 (WV-2),2009-055A,2026-06-05T23:03:01.261728,14.37896157,.0003194,98.4737,230.5646,249.7948,110.2895,0,U,35946,999,87403,.62788E-4,.146E-5,0
YAOGAN-7,2009-069A,2026-06-05T10:39:58.951584,14.77997470,.00259951,98.0085,42.3833,77.8419,282.5701,0,U,36110,999,88789,.8175363E-4,.54E-5,0
TANDEM-X,2010-030A,2026-06-01T10:46:51.497760,15.19149361,.00017833,97.4445,160.3804,80.8335,279.3101,0,U,36605,999,88425,.38591092E-4,.743E-5,0
YAOGAN-10,2010-038A,2026-06-06T05:41:02.330592,14.85315247,.0001662,97.8978,180.7287,88.5337,338.3993,0,U,36834,999,85558,.24667E-3,.2066E-4,0
COSMO-SKYMED 4,2010-060A,2026-06-06T04:04:02.823168,14.82159684,.000144,97.8886,340.9290,81.6966,278.4410,0,U,37216,999,84293,.28312E-4,.173E-5,0
RESOURCESAT-2,2011-015A,2026-06-05T21:33:21.475008,14.21604056,.0010169,98.7645,224.4175,291.8847,68.1249,0,U,37387,999,78457,.67424E-4,.104E-5,0
HAIYANG-2A,2011-043A,2026-06-06T04:36:43.498368,13.74549684,.0006204,99.3393,160.1103,113.4853,246.6948,0,U,37781,999,74514,-.16898E-3,-.204E-5,0
PLEIADES 1A,2011-076F,2026-06-06T03:42:07.808256,14.58564182,.000148,98.1974,232.4046,98.2141,348.6519,0,U,38012,999,77038,.86956E-4,.359E-5,0
ZIYUAN 1-02C (ZY 1-02C),2011-079A,2026-06-06T05:28:55.623648,14.38206203,.0006203,98.4069,224.7656,352.7626,99.8284,0,U,38038,999,75763,.18057E-3,.505E-5,0
ARIRANG-3 (KOMPSAT-3),2012-025B,2026-06-06T03:39:10.860192,14.62196551,.0006156,98.1171,114.8031,137.8814,222.2861,0,U,38338,999,74973,.11129E-3,.514E-5,0
SPOT 6,2012-047A,2026-06-06T03:40:19.486848,14.58556397,.0001428,98.2118,224.5903,92.9303,267.2060,0,U,38755,999,73144,.78989E-4,.321E-5,0
PLEIADES 1B,2012-068A,2026-06-06T04:07:32.136672,14.58553761,.0001559,98.1944,232.3749,94.8916,265.2461,0,U,39019,999,71924,.81809E-4,.335E-5,0
LANDSAT 8,2013-008A,2026-06-05T21:36:17.006112,14.57111241,.0001455,98.2303,227.1691,97.0509,263.0855,0,U,39084,999,69625,.93739E-4,.377E-5,0
GAOFEN-1,2013-018A,2026-06-05T11:23:40.845120,14.76521097,.00160696,97.9095,228.7800,307.6988,52.2765,0,U,39150,999,70651,-.45793527E-4,-.371E-5,0
ARIRANG-5 (KOMPSAT-5),2013-042A,2026-06-06T04:36:38.956320,15.04548758,.0003914,97.6208,344.0463,150.5743,209.5704,0,U,39227,999,70220,.14797E-3,.2013E-4,0
GPM-CORE,2014-009C,2026-06-05T21:08:27.002976,15.45410629,.0012046,64.9730,346.0113,269.2115,90.7646,0,U,39574,999,69606,.19574E-3,.9188E-4,0
SENTINEL-1A,2014-016A,2026-06-06T04:34:07.009824,14.59199444,.000144,98.1779,164.8836,80.4671,279.6692,0,U,39634,999,64841,.32071E-4,.105E-5,0
