{"fetched_at":"2026-06-06T13:27:30Z","count":1118,"tles":[{"name":"SENTINEL-1A","line1":"1 39634U 14016A   26157.19035891  .00000105  00000+0  32071-4 0  9996","line2":"2 39634  98.1779 164.8836 0001440  80.4671 279.6692 14.59199444648413","category":"Other"},{"name":"LANDSAT 8","line1":"1 39084U 13008A   26156.90019683  .00000377  00000+0  93739-4 0  9993","line2":"2 39084  98.2303 227.1691 0001455  97.0509 263.0855 14.57111241696258","category":"Other"},{"name":"YAOGAN-7","line1":"1 36110U 09069A   26156.44443231  .00000540  00000+0  81754-4 0  9997","line2":"2 36110  98.0085  42.3833 0025995  77.8419 282.5701 14.77997470887892","category":"Other"},{"name":"ARIRANG-5 (KOMPSAT-5)","line1":"1 39227U 13042A   26157.19211755  .00002013  00000+0  14797-3 0  9991","line2":"2 39227  97.6208 344.0463 0003914 150.5743 209.5704 15.04548758702208","category":"Other"},{"name":"YAOGAN-10","line1":"1 36834U 10038A   26157.23683253  .00002066  00000+0  24667-3 0  9990","line2":"2 36834  97.8978 180.7287 0001662  88.5337 338.3993 14.85315247855585","category":"Other"},{"name":"WORLDVIEW-2 (WV-2)","line1":"1 35946U 09055A   26156.96043127  .00000146  00000+0  62788-4 0  9993","line2":"2 35946  98.4737 230.5646 0003194 249.7948 110.2895 14.37896157874032","category":"Other"},{"name":"GAOFEN-1","line1":"1 39150U 13018A   26156.47477830 -.00000371  00000+0 -45794-4 0  9996","line2":"2 39150  97.9095 228.7800 0016069 307.6988  52.2765 14.76521097706517","category":"Other"},{"name":"SPOT 6","line1":"1 38755U 12047A   26157.15300332  .00000321  00000+0  78989-4 0  9990","line2":"2 38755  98.2118 224.5903 0001428  92.9303 267.2060 14.58556397731440","category":"Other"},{"name":"TANDEM-X","line1":"1 36605U 10030A   26152.44920715  .00000743  00000+0  38591-4 0  9995","line2":"2 36605  97.4445 160.3804 0001783  80.8335 279.3101 15.19149361884253","category":"Other"},{"name":"COSMO-SKYMED 4","line1":"1 37216U 10060A   26157.16947712  .00000173  00000+0  28312-4 0  9994","line2":"2 37216  97.8886 340.9290 0001440  81.6966 278.4410 14.82159684842939","category":"Other"},{"name":"PLEIADES 1B","line1":"1 39019U 12068A   26157.17189973  .00000335  00000+0  81809-4 0  9995","line2":"2 39019  98.1944 232.3749 0001559  94.8916 265.2461 14.58553761719240","category":"Other"},{"name":"PLEIADES 1A","line1":"1 38012U 11076F   26157.15425704  .00000359  00000+0  86956-4 0  9992","line2":"2 38012  98.1974 232.4046 0001480  98.2141 348.6519 14.58564182770388","category":"Other"},{"name":"HAIYANG-2A","line1":"1 37781U 11043A   26157.19217012 -.00000204  00000+0 -16898-3 0  9991","line2":"2 37781  99.3393 160.1103 0006204 113.4853 246.6948 13.74549684745144","category":"Other"},{"name":"GPM-CORE","line1":"1 39574U 14009C   26156.88086809  .00009188  00000+0  19574-3 0  9993","line2":"2 39574  64.9730 346.0113 0012046 269.2115  90.7646 15.45410629696062","category":"Other"},{"name":"ZIYUAN 1-02C (ZY 1-02C)","line1":"1 38038U 11079A   26157.22842157  .00000505  00000+0  18057-3 0  9995","line2":"2 38038  98.4069 224.7656 0006203 352.7626  99.8284 14.38206203757631","category":"Other"},{"name":"ARIRANG-3 (KOMPSAT-3)","line1":"1 38338U 12025B   26157.15220903  .00000514  00000+0  11129-3 0  9994","line2":"2 38338  98.1171 114.8031 0006156 137.8814 222.2861 14.62196551749735","category":"Other"},{"name":"RESOURCESAT-2","line1":"1 37387U 11015A   26156.89816522  .00000104  00000+0  67424-4 0  9998","line2":"2 37387  98.7645 224.4175 0010169 291.8847  68.1249 14.21604056784570","category":"Other"},{"name":"DUBAISAT-1","line1":"1 35682U 09041B   26156.82889828  .00000994  00000+0  15478-3 0  9990","line2":"2 35682  98.0039 290.2122 0011719 105.9324 254.3177 14.75106201903420","category":"Other"}]}